{"generatedAt":"2026-05-05T08:19:47.084492Z","satellites":[{"name":"STARLINK-37564","tle1":"1 68902U 26097H   26124.75002315 -.02250951  14605-2 -50160-2 0  9995","tle2":"2 68902  97.2869 319.6754 0001532  93.3167 138.1531 15.98030832  1948"}]}