{
  "norad_id": 68902,
  "name": "STARLINK-37564",
  "history": [
    {
      "epoch": "2026-05-04T18:00:02.000160Z",
      "apogee_km": 280.90264743161606,
      "perigee_km": 278.86263021428204,
      "latitude_deg": -51.16708838011083,
      "longitude_deg": -2.0559765521851983,
      "height_km": 300.5987986867613,
      "semi_major_axis_km": 6658.019638822949,
      "eccentricity": 0.0001532,
      "inclination_deg": 97.2869,
      "raan_deg": 319.6754,
      "arg_perigee_deg": 93.3167,
      "mean_anomaly_deg": 138.1531,
      "mean_motion_rev_day": 15.98030832
    }
  ]
}